{
  "norad_id": 39741,
  "name": "NAVSTAR 70 (USA 251)",
  "history": [
    {
      "epoch": "2026-04-22T02:53:10.719744Z",
      "apogee_km": 20285.720255940065,
      "perigee_km": 20078.4554166122,
      "latitude_deg": -4.928250003958962e-05,
      "longitude_deg": 80.23278978954568,
      "height_km": 20095.990876382293,
      "semi_major_axis_km": 26560.22483627613,
      "eccentricity": 0.00390179,
      "inclination_deg": 56.5238,
      "raan_deg": 333.7007,
      "arg_perigee_deg": 326.5761,
      "mean_anomaly_deg": 33.2155,
      "mean_motion_rev_day": 2.00564997
    },
    {
      "epoch": "2026-04-24T14:42:57.271104Z",
      "apogee_km": 20285.62588817849,
      "perigee_km": 20078.5676178866,
      "latitude_deg": -5.002564584772162e-05,
      "longitude_deg": -99.7655662015988,
      "height_km": 20096.001663814186,
      "semi_major_axis_km": 26560.233753032546,
      "eccentricity": 0.0038979,
      "inclination_deg": 56.5227,
      "raan_deg": 333.6035,
      "arg_perigee_deg": 326.6375,
      "mean_anomaly_deg": 33.1532,
      "mean_motion_rev_day": 2.00564896
    },
    {
      "epoch": "2026-04-25T14:38:52.112832Z",
      "apogee_km": 20285.56896518945,
      "perigee_km": 20078.632839644135,
      "latitude_deg": -2.6322229892789278e-06,
      "longitude_deg": -99.76501068556297,
      "height_km": 20096.032436188438,
      "semi_major_axis_km": 26560.23790241679,
      "eccentricity": 0.0038956,
      "inclination_deg": 56.5223,
      "raan_deg": 333.5646,
      "arg_perigee_deg": 326.6637,
      "mean_anomaly_deg": 33.1281,
      "mean_motion_rev_day": 2.00564849
    },
    {
      "epoch": "2026-04-26T02:36:49.608000Z",
      "apogee_km": 20285.55409599407,
      "perigee_km": 20078.6561841809,
      "latitude_deg": -3.780973670112649e-05,
      "longitude_deg": 80.23502451565689,
      "height_km": 20096.04924762765,
      "semi_major_axis_km": 26560.242140087485,
      "eccentricity": 0.00389488,
      "inclination_deg": 56.5221,
      "raan_deg": 333.5452,
      "arg_perigee_deg": 326.6709,
      "mean_anomaly_deg": 33.1214,
      "mean_motion_rev_day": 2.00564801
    },
    {
      "epoch": "2026-04-27T02:32:44.421216Z",
      "apogee_km": 20285.49531121176,
      "perigee_km": 20078.71850035645,
      "latitude_deg": -5.6071515044452826e-05,
      "longitude_deg": 80.2357063985682,
      "height_km": 20096.087317424557,
      "semi_major_axis_km": 26560.243905784104,
      "eccentricity": 0.0038926,
      "inclination_deg": 56.5216,
      "raan_deg": 333.5063,
      "arg_perigee_deg": 326.6984,
      "mean_anomaly_deg": 33.095,
      "mean_motion_rev_day": 2.00564781
    },
    {
      "epoch": "2026-04-28T02:28:39.307872Z",
      "apogee_km": 20285.449100908932,
      "perigee_km": 20078.773186005437,
      "latitude_deg": -1.3266862623401508e-05,
      "longitude_deg": 80.23593652168425,
      "height_km": 20096.130033688845,
      "semi_major_axis_km": 26560.248143457186,
      "eccentricity": 0.0038907,
      "inclination_deg": 56.5212,
      "raan_deg": 333.4675,
      "arg_perigee_deg": 326.7204,
      "mean_anomaly_deg": 33.0737,
      "mean_motion_rev_day": 2.00564733
    },
    {
      "epoch": "2026-04-29T14:22:31.510848Z",
      "apogee_km": 20285.372879479648,
      "perigee_km": 20078.861590750777,
      "latitude_deg": -2.5545235616495863e-06,
      "longitude_deg": -99.76418912646415,
      "height_km": 20096.208320503112,
      "semi_major_axis_km": 26560.25423511521,
      "eccentricity": 0.0038876,
      "inclination_deg": 56.5206,
      "raan_deg": 333.4092,
      "arg_perigee_deg": 326.747,
      "mean_anomaly_deg": 33.0469,
      "mean_motion_rev_day": 2.00564664
    }
  ]
}